GLOBALSTAR M096         
1 39075U 13005D   25100.40841104 -.00000098  00000+0  29560-4 0  9996
2 39075  52.0068  76.9414 0000662  81.9407 278.1535 12.62270055562735
GLOBALSTAR M078         
1 39076U 13005E   25100.85666706  .00000019  00000+0  68702-3 0  9991
2 39076  51.9857 160.1791 0001043  53.8369 306.2594 12.62261531561414
GLOBALSTAR M095         
1 39077U 13005F   25100.64576575 -.00000065  00000+0  21562-3 0  9998
2 39077  51.9782 158.0534 0000811  87.2817 272.8143 12.62268877561243
GLOBALSTAR M087         
1 52888U 22064A   25100.83477140 -.00000078  00000+0  14113-3 0  9995
2 52888  51.9794 298.8816 0000944  91.5475 268.5500 12.62270704136869
